{"fetched_at":"2026-07-06T08:46:38.495Z","source":"https://celestrak.org/NORAD/elements/gp.php?GROUP=oneweb&FORMAT=JSON","constellation":"oneweb","records":[{"OBJECT_NAME":"ONEWEB-0588","OBJECT_ID":"2023-004P","EPOCH":"2026-07-05T07:38:46.569120","CLASSIFICATION_TYPE":"U","MEAN_MOTION":13.18686023,"ECCENTRICITY":0.0002282,"INCLINATION":87.9177,"RA_OF_ASC_NODE":331.8616,"ARG_OF_PERICENTER":89.2124,"MEAN_ANOMALY":270.9269,"EPHEMERIS_TYPE":0,"NORAD_CAT_ID":55153,"ELEMENT_SET_NO":999,"REV_AT_EPOCH":17208,"BSTAR":0.00017606,"MEAN_MOTION_DOT":8.2e-7,"MEAN_MOTION_DDOT":0},{"OBJECT_NAME":"ONEWEB-0598","OBJECT_ID":"2023-004Q","EPOCH":"2026-07-05T11:18:56.005056","CLASSIFICATION_TYPE":"U","MEAN_MOTION":13.11414751,"ECCENTRICITY":0.0002309,"INCLINATION":87.8879,"RA_OF_ASC_NODE":17.4275,"ARG_OF_PERICENTER":104.5153,"MEAN_ANOMALY":255.6231,"EPHEMERIS_TYPE":0,"NORAD_CAT_ID":55154,"ELEMENT_SET_NO":999,"REV_AT_EPOCH":16829,"BSTAR":-0.001044,"MEAN_MOTION_DOT":-0.00000357,"MEAN_MOTION_DDOT":0},{"OBJECT_NAME":"ONEWEB-0599","OBJECT_ID":"2023-004R","EPOCH":"2026-07-05T00:31:21.677088","CLASSIFICATION_TYPE":"U","MEAN_MOTION":13.1765015,"ECCENTRICITY":0.0001762,"INCLINATION":87.9135,"RA_OF_ASC_NODE":2.3154,"ARG_OF_PERICENTER":97.917,"MEAN_ANOMALY":262.2162,"EPHEMERIS_TYPE":0,"NORAD_CAT_ID":55155,"ELEMENT_SET_NO":999,"REV_AT_EPOCH":16983,"BSTAR":0.000018074,"MEAN_MOTION_DOT":2e-7,"MEAN_MOTION_DDOT":0},{"OBJECT_NAME":"ONEWEB-0614","OBJECT_ID":"2023-004S","EPOCH":"2026-07-05T02:02:16.160064","CLASSIFICATION_TYPE":"U","MEAN_MOTION":13.1141458,"ECCENTRICITY":0.0001867,"INCLINATION":87.8875,"RA_OF_ASC_NODE":17.513,"ARG_OF_PERICENTER":81.6396,"MEAN_ANOMALY":278.4944,"EPHEMERIS_TYPE":0,"NORAD_CAT_ID":55156,"ELEMENT_SET_NO":999,"REV_AT_EPOCH":16818,"BSTAR":-0.00066771,"MEAN_MOTION_DOT":-0.00000224,"MEAN_MOTION_DDOT":0},{"OBJECT_NAME":"ONEWEB-0616","OBJECT_ID":"2023-004T","EPOCH":"2026-07-05T10:38:51.150912","CLASSIFICATION_TYPE":"U","MEAN_MOTION":13.17649888,"ECCENTRICITY":0.0001317,"INCLINATION":87.9137,"RA_OF_ASC_NODE":2.2355,"ARG_OF_PERICENTER":118.2775,"MEAN_ANOMALY":241.849,"EPHEMERIS_TYPE":0,"NORAD_CAT_ID":55157,"ELEMENT_SET_NO":999,"REV_AT_EPOCH":17010,"BSTAR":0.0000063493,"MEAN_MOTION_DOT":1.5e-7,"MEAN_MOTION_DDOT":0},{"OBJECT_NAME":"ONEWEB-0617","OBJECT_ID":"2023-004U","EPOCH":"2026-07-05T12:44:23.973792","CLASSIFICATION_TYPE":"U","MEAN_MOTION":13.11415535,"ECCENTRICITY":0.0002094,"INCLINATION":87.8882,"RA_OF_ASC_NODE":17.4163,"ARG_OF_PERICENTER":79.0066,"MEAN_ANOMALY":281.1298,"EPHEMERIS_TYPE":0,"NORAD_CAT_ID":55158,"ELEMENT_SET_NO":999,"REV_AT_EPOCH":16826,"BSTAR":0.00098969,"MEAN_MOTION_DOT":0.00000363,"MEAN_MOTION_DDOT":0},{"OBJECT_NAME":"ONEWEB-0618","OBJECT_ID":"2023-004V","EPOCH":"2026-07-05T09:02:20.686848","CLASSIFICATION_TYPE":"U","MEAN_MOTION":15.13315417,"ECCENTRICITY":0.0010552,"INCLINATION":86.9097,"RA_OF_ASC_NODE":170.249,"ARG_OF_PERICENTER":214.0619,"MEAN_ANOMALY":145.9945,"EPHEMERIS_TYPE":0,"NORAD_CAT_ID":55159,"ELEMENT_SET_NO":999,"REV_AT_EPOCH":18501,"BSTAR":0.00040899,"MEAN_MOTION_DOT":0.00007322,"MEAN_MOTION_DDOT":0},{"OBJECT_NAME":"ONEWEB-0619","OBJECT_ID":"2023-004W","EPOCH":"2026-07-04T22:39:35.182080","CLASSIFICATION_TYPE":"U","MEAN_MOTION":13.17650433,"ECCENTRICITY":0.0001577,"INCLINATION":87.9145,"RA_OF_ASC_NODE":2.3169,"ARG_OF_PERICENTER":80.1032,"MEAN_ANOMALY":280.0277,"EPHEMERIS_TYPE":0,"NORAD_CAT_ID":55160,"ELEMENT_SET_NO":999,"REV_AT_EPOCH":16993,"BSTAR":0.000016075,"MEAN_MOTION_DOT":1.9e-7,"MEAN_MOTION_DDOT":0},{"OBJECT_NAME":"ONEWEB-0620","OBJECT_ID":"2023-004X","EPOCH":"2026-07-05T01:37:52.129344","CLASSIFICATION_TYPE":"U","MEAN_MOTION":13.11415421,"ECCENTRICITY":0.0002083,"INCLINATION":87.8876,"RA_OF_ASC_NODE":17.5159,"ARG_OF_PERICENTER":92.2732,"MEAN_ANOMALY":267.8635,"EPHEMERIS_TYPE":0,"NORAD_CAT_ID":55161,"ELEMENT_SET_NO":999,"REV_AT_EPOCH":16817,"BSTAR":0.0012283,"MEAN_MOTION_DOT":0.00000448,"MEAN_MOTION_DDOT":0},{"OBJECT_NAME":"ONEWEB-0621","OBJECT_ID":"2023-004Y","EPOCH":"2026-07-05T02:16:54.920640","CLASSIFICATION_TYPE":"U","MEAN_MOTION":13.11415712,"ECCENTRICITY":0.0001845,"INCLINATION":87.8887,"RA_OF_ASC_NODE":17.5013,"ARG_OF_PERICENTER":81.2713,"MEAN_ANOMALY":278.8624,"EPHEMERIS_TYPE":0,"NORAD_CAT_ID":55162,"ELEMENT_SET_NO":999,"REV_AT_EPOCH":16815,"BSTAR":-0.0015629,"MEAN_MOTION_DOT":-0.00000541,"MEAN_MOTION_DDOT":0},{"OBJECT_NAME":"ONEWEB-0622","OBJECT_ID":"2023-004Z","EPOCH":"2026-07-05T11:33:34.859808","CLASSIFICATION_TYPE":"U","MEAN_MOTION":13.11415727,"ECCENTRICITY":0.0002413,"INCLINATION":87.8889,"RA_OF_ASC_NODE":17.4269,"ARG_OF_PERICENTER":76.885,"MEAN_ANOMALY":283.2547,"EPHEMERIS_TYPE":0,"NORAD_CAT_ID":55163,"ELEMENT_SET_NO":999,"REV_AT_EPOCH":16819,"BSTAR":-0.001564,"MEAN_MOTION_DOT":-0.00000542,"MEAN_MOTION_DDOT":0},{"OBJECT_NAME":"ONEWEB-0623","OBJECT_ID":"2023-004AA","EPOCH":"2026-07-05T11:17:42.984960","CLASSIFICATION_TYPE":"U","MEAN_MOTION":13.17647119,"ECCENTRICITY":0.0002017,"INCLINATION":87.9134,"RA_OF_ASC_NODE":2.2404,"ARG_OF_PERICENTER":67.8825,"MEAN_ANOMALY":292.252,"EPHEMERIS_TYPE":0,"NORAD_CAT_ID":55164,"ELEMENT_SET_NO":999,"REV_AT_EPOCH":16999,"BSTAR":0.000062873,"MEAN_MOTION_DOT":3.7e-7,"MEAN_MOTION_DDOT":0},{"OBJECT_NAME":"ONEWEB-0624","OBJECT_ID":"2023-004AB","EPOCH":"2026-07-05T09:48:43.624800","CLASSIFICATION_TYPE":"U","MEAN_MOTION":13.12929199,"ECCENTRICITY":0.0001794,"INCLINATION":87.8955,"RA_OF_ASC_NODE":346.9581,"ARG_OF_PERICENTER":89.2181,"MEAN_ANOMALY":270.9153,"EPHEMERIS_TYPE":0,"NORAD_CAT_ID":55165,"ELEMENT_SET_NO":999,"REV_AT_EPOCH":17046,"BSTAR":-0.00063221,"MEAN_MOTION_DOT":-0.00000216,"MEAN_MOTION_DDOT":0},{"OBJECT_NAME":"ONEWEB-0625","OBJECT_ID":"2023-004AC","EPOCH":"2026-07-05T11:03:09.112032","CLASSIFICATION_TYPE":"U","MEAN_MOTION":13.17649471,"ECCENTRICITY":0.0001696,"INCLINATION":87.9135,"RA_OF_ASC_NODE":2.2386,"ARG_OF_PERICENTER":93.1207,"MEAN_ANOMALY":267.0119,"EPHEMERIS_TYPE":0,"NORAD_CAT_ID":55166,"ELEMENT_SET_NO":999,"REV_AT_EPOCH":16998,"BSTAR":0.000083482,"MEAN_MOTION_DOT":4.5e-7,"MEAN_MOTION_DDOT":0},{"OBJECT_NAME":"ONEWEB-0626","OBJECT_ID":"2023-004AD","EPOCH":"2026-07-05T10:48:35.345376","CLASSIFICATION_TYPE":"U","MEAN_MOTION":13.17635404,"ECCENTRICITY":0.0001949,"INCLINATION":87.9137,"RA_OF_ASC_NODE":2.2399,"ARG_OF_PERICENTER":98.4885,"MEAN_ANOMALY":261.6467,"EPHEMERIS_TYPE":0,"NORAD_CAT_ID":55167,"ELEMENT_SET_NO":999,"REV_AT_EPOCH":16998,"BSTAR":0.0049897,"MEAN_MOTION_DOT":0.0000195,"MEAN_MOTION_DDOT":0},{"OBJECT_NAME":"ONEWEB-0627","OBJECT_ID":"2023-004AE","EPOCH":"2026-07-04T23:35:28.023072","CLASSIFICATION_TYPE":"U","MEAN_MOTION":13.17647853,"ECCENTRICITY":0.0001958,"INCLINATION":87.9136,"RA_OF_ASC_NODE":2.3335,"ARG_OF_PERICENTER":76.3183,"MEAN_ANOMALY":283.8166,"EPHEMERIS_TYPE":0,"NORAD_CAT_ID":55168,"ELEMENT_SET_NO":999,"REV_AT_EPOCH":16992,"BSTAR":-0.00011354,"MEAN_MOTION_DOT":-3.1e-7,"MEAN_MOTION_DDOT":0}]}
